STARLINK-5025           
1 53920U 22119AL  26165.92893421  .00000322  00000+0  38336-4 0  9995
2 53920  53.1598 237.5798 0001123  84.1540 275.9580 15.08836397206501
STARLINK-5002           
1 53922U 22119AN  26165.89850182  .00000304  00000+0  37169-4 0  9993
2 53922  53.1588 237.3986 0001154  82.1363 277.9760 15.08830387206509
STARLINK-5004           
1 53923U 22119AP  26165.90587332  .00000111  00000+0  25061-4 0  9994
2 53923  53.1592 237.4443 0001106  86.9628 273.1489 15.08829352206503
STARLINK-5001           
1 53924U 22119AQ  26166.16668980  .00740039  00000+0  16305-1 0  9991
2 53924  53.2163 225.9707 0001019  90.3621 151.1946 15.40945047  5875
STARLINK-5011           
1 53925U 22119AR  26165.48633825 -.00001329  00000+0 -65482-4 0  9993
2 53925  53.1593 239.1038 0001149  90.3991 269.7132 15.08824628206444
STARLINK-5014           
1 53926U 22119AS  26166.16668980  .00509857  00000+0  42783-2 0  9994
2 53926  53.2166 216.8256 0001006  80.2407 137.4419 15.67821865  5573
STARLINK-5009           
1 53928U 22119AU  26165.44679486  .00000088  00000+0  23636-4 0  9999
2 53928  53.1597 229.5801 0001138  82.5617 277.5504 15.08835950206572
STARLINK-5018           
1 53929U 22119AV  26165.89217293 -.00000130  00000+0  99393-5 0  9996
2 53929  53.1599 238.0537 0001279  89.0259 271.0879 15.08831441206492
STARLINK-5010           
1 53930U 22119AW  26166.16668980  .00577240  00000+0  28427-2 0  9999
2 53930  53.2155 203.0698 0001061  66.8525 259.4800 15.80044284  5921
STARLINK-4772           
1 53932U 22119AY  26165.86126679  .00001357  00000+0  10334-3 0  9991
2 53932  53.1590 222.9088 0001478  77.3418 282.7738 15.08842007206716
STARLINK-4782           
1 53933U 22119AZ  26165.90679084  .00000292  00000+0  36460-4 0  9996
2 53933  53.1601 227.4717 0001263  84.4774 275.6361 15.08835388206644
STARLINK-4775           
1 53934U 22119BA  26165.85759698  .00000158  00000+0  28038-4 0  9994
2 53934  53.1593 222.8832 0001138  81.2379 278.8741 15.08830955206720
STARLINK-5000           
1 53935U 22119BB  26166.16668980  .00629235  00000+0  20226-2 0  9995
2 53935  53.2127 184.8923 0001570  72.0227  51.5952 15.88882675  5993
STARLINK-4791           
1 53936U 22119BC  26165.89435617  .00000398  00000+0  43085-4 0  9997
2 53936  53.1595 222.4041 0001235  86.1102 274.0031 15.08836159206720
STARLINK-4633           
1 53964U 22125A   26166.21962209  .00000528  00000+0  51281-4 0  9996
2 53964  53.1612 146.3636 0001335  88.4356 271.6788 15.08840685204046
STARLINK-4635           
1 53966U 22125C   26166.21225736 -.00002375  00000+0 -13119-3 0  9996
2 53966  53.1613 146.3153 0001349  87.8803 272.2343 15.08831742204046
STARLINK-4634           
1 53967U 22125D   26166.20857405  .00000434  00000+0  45342-4 0  9996
2 53967  53.1610 146.2951 0001347  87.2229 272.8917 15.08836620204046
STARLINK-4629           
1 53968U 22125E   26166.13129896  .00002160  00000+0  15380-3 0  9991
2 53968  53.1597 146.5203 0001067  66.5634 293.5470 15.08824968204038
STARLINK-4468           
1 53969U 22125F   26166.20489235  .00000272  00000+0  35171-4 0  9999
2 53969  53.1607 146.2715 0001263  83.0126 277.1009 15.08832929204047
STARLINK-4567           
1 53970U 22125G   26166.20719634 -.00000098  00000+0  11929-4 0  9992
2 53970  53.1609 141.3051 0001343  87.4499 272.6646 15.08831793204124
STARLINK-5156           
1 53973U 22125K   26166.19383950  .00000204  00000+0  30944-4 0  9997
2 53973  53.1602 146.2042 0001315  89.8198 270.2944 15.08831492204047
STARLINK-5159           
1 53974U 22125L   26166.16251546 -.00001291  00000+0 -63025-4 0  9995
2 53974  53.1616 126.0695 0001272  62.0914 298.0206 15.08828929204325
STARLINK-5137           
1 53975U 22125M   26166.16298042 -.00000133  00000+0  97448-5 0  9998
2 53975  53.1606 141.0395 0001208  83.9338 276.1791 15.08830380204117
STARLINK-5134           
1 53976U 22125N   26166.14418670  .00000386  00000+0  42347-4 0  9994
2 53976  53.1610 126.6661 0001537  83.1617 276.9549 15.08834646204315
STARLINK-5094           
1 53977U 22125P   26166.21457544  .00003511  00000+0  23870-3 0  9998
2 53977  53.1612 141.3423 0001276  89.0616 271.0521 15.08818288204110
STARLINK-5148           
1 53978U 22125Q   26166.19614293 -.00001403  00000+0 -70090-4 0  9999
2 53978  53.1597 141.2294 0001322  85.3964 274.7178 15.08826526204117
STARLINK-5123           
1 53979U 22125R   26166.13727198 -.00000222  00000+0  41632-5 0  9991
2 53979  53.1611 141.5724 0001339  72.5274 287.5863 15.08831064204101
STARLINK-5133           
1 53980U 22125S   26166.17772074  .00000025  00000+0  19647-4 0  9990
2 53980  53.1602 141.1195 0001437  87.8630 272.2526 15.08831064204113
STARLINK-5149           
1 53981U 22125T   26166.17726394 -.00000502  00000+0 -13436-4 0  9997
2 53981  53.1604 126.1751 0001366  88.0640 272.0508 15.08829327204322
STARLINK-5120           
1 53982U 22125U   26166.20581728 -.00001784  00000+0 -94013-4 0  9995
2 53982  53.1612 136.3073 0001517  89.9727 270.1438 15.08829919204177
