OBJECT_NAME,OBJECT_ID,EPOCH,MEAN_MOTION,ECCENTRICITY,INCLINATION,RA_OF_ASC_NODE,ARG_OF_PERICENTER,MEAN_ANOMALY,EPHEMERIS_TYPE,CLASSIFICATION_TYPE,NORAD_CAT_ID,ELEMENT_SET_NO,REV_AT_EPOCH,BSTAR,MEAN_MOTION_DOT,MEAN_MOTION_DDOT
STARLINK-5025,2022-119AL,2026-06-14T22:17:39.915744,15.08836397,.0001123,53.1598,237.5798,84.1540,275.9580,0,U,53920,999,20650,.38336E-4,.322E-5,0
STARLINK-5002,2022-119AN,2026-06-14T21:33:50.557248,15.08830387,.0001154,53.1588,237.3986,82.1363,277.9760,0,U,53922,999,20650,.37169E-4,.304E-5,0
STARLINK-5004,2022-119AP,2026-06-14T21:44:27.454848,15.08829352,.0001106,53.1592,237.4443,86.9628,273.1489,0,U,53923,999,20650,.25061E-4,.111E-5,0
STARLINK-5001,2022-119AQ,2026-06-15T04:00:01.998720,15.40945047,.0001019,53.2163,225.9707,90.3621,151.1946,0,U,53924,999,587,.16305E-1,.740039E-2,0
STARLINK-5011,2022-119AR,2026-06-14T11:40:19.624800,15.08824628,.00011496,53.1593,239.1038,90.3991,269.7132,0,U,53925,999,20644,-.65482083E-4,-.1329E-4,0
STARLINK-5014,2022-119AS,2026-06-15T04:00:01.998720,15.67821865,.0001006,53.2166,216.8256,80.2407,137.4419,0,U,53926,999,557,.42783E-2,.509857E-2,0
STARLINK-5009,2022-119AU,2026-06-14T10:43:23.075904,15.08835950,.00011381,53.1597,229.5801,82.5617,277.5504,0,U,53928,999,20657,.2363586E-4,.88E-6,0
STARLINK-5018,2022-119AV,2026-06-14T21:24:43.741152,15.08831441,.0001279,53.1599,238.0537,89.0259,271.0879,0,U,53929,999,20649,.99393E-5,-.13E-5,0
STARLINK-5010,2022-119AW,2026-06-15T04:00:01.998720,15.80044284,.0001061,53.2155,203.0698,66.8525,259.4800,0,U,53930,999,592,.28427E-2,.57724E-2,0
STARLINK-4772,2022-119AY,2026-06-14T20:40:13.450656,15.08842007,.00014783,53.1590,222.9088,77.3418,282.7738,0,U,53932,999,20671,.10334176E-3,.1357E-4,0
STARLINK-4782,2022-119AZ,2026-06-14T21:45:46.728576,15.08835388,.0001263,53.1601,227.4717,84.4774,275.6361,0,U,53933,999,20664,.3646E-4,.292E-5,0
STARLINK-4775,2022-119BA,2026-06-14T20:34:56.379072,15.08830955,.00011388,53.1593,222.8832,81.2379,278.8741,0,U,53934,999,20672,.28038088E-4,.158E-5,0
STARLINK-5000,2022-119BB,2026-06-15T04:00:01.998720,15.88882675,.000157,53.2127,184.8923,72.0227,51.5952,0,U,53935,999,599,.20226E-2,.629235E-2,0
STARLINK-4791,2022-119BC,2026-06-14T21:27:52.373088,15.08836159,.0001235,53.1595,222.4041,86.1102,274.0031,0,U,53936,999,20672,.43085E-4,.398E-5,0
STARLINK-4633,2022-125A,2026-06-15T05:16:15.348576,15.08840685,.0001335,53.1612,146.3636,88.4356,271.6788,0,U,53964,999,20404,.51281E-4,.528E-5,0
STARLINK-4635,2022-125C,2026-06-15T05:05:39.035904,15.08831742,.0001349,53.1613,146.3153,87.8803,272.2343,0,U,53966,999,20404,-.13119E-3,-.2375E-4,0
STARLINK-4634,2022-125D,2026-06-15T05:00:20.797920,15.08836620,.0001347,53.1610,146.2951,87.2229,272.8917,0,U,53967,999,20404,.45342E-4,.434E-5,0
STARLINK-4629,2022-125E,2026-06-15T03:09:04.230144,15.08824968,.0001067,53.1597,146.5203,66.5634,293.5470,0,U,53968,999,20403,.1538E-3,.216E-4,0
STARLINK-4468,2022-125F,2026-06-15T04:55:02.699040,15.08832929,.0001263,53.1607,146.2715,83.0126,277.1009,0,U,53969,999,20404,.35171E-4,.272E-5,0
STARLINK-4567,2022-125G,2026-06-15T04:58:21.763776,15.08831793,.0001343,53.1609,141.3051,87.4499,272.6646,0,U,53970,999,20412,.11929E-4,-.98E-6,0
STARLINK-5156,2022-125K,2026-06-15T04:39:07.732800,15.08831492,.0001315,53.1602,146.2042,89.8198,270.2944,0,U,53973,999,20404,.30944E-4,.204E-5,0
STARLINK-5159,2022-125L,2026-06-15T03:54:01.335744,15.08828929,.0001272,53.1616,126.0695,62.0914,298.0206,0,U,53974,999,20432,-.63025E-4,-.1291E-4,0
STARLINK-5137,2022-125M,2026-06-15T03:54:41.508288,15.08830380,.0001208,53.1606,141.0395,83.9338,276.1791,0,U,53975,999,20411,.97448E-5,-.133E-5,0
STARLINK-5134,2022-125N,2026-06-15T03:27:37.730880,15.08834646,.0001537,53.1610,126.6661,83.1617,276.9549,0,U,53976,999,20431,.42347E-4,.386E-5,0
STARLINK-5094,2022-125P,2026-06-15T05:08:59.318016,15.08818288,.0001276,53.1612,141.3423,89.0616,271.0521,0,U,53977,999,20411,.2387E-3,.3511E-4,0
STARLINK-5148,2022-125Q,2026-06-15T04:42:26.749152,15.08826526,.0001322,53.1597,141.2294,85.3964,274.7178,0,U,53978,999,20411,-.7009E-4,-.1403E-4,0
STARLINK-5123,2022-125R,2026-06-15T03:17:40.299072,15.08831064,.0001339,53.1611,141.5724,72.5274,287.5863,0,U,53979,999,20410,.41632E-5,-.222E-5,0
STARLINK-5133,2022-125S,2026-06-15T04:15:55.071936,15.08831064,.0001437,53.1602,141.1195,87.8630,272.2526,0,U,53980,999,20411,.19647E-4,.25E-6,0
STARLINK-5149,2022-125T,2026-06-15T04:15:15.604416,15.08829327,.0001366,53.1604,126.1751,88.0640,272.0508,0,U,53981,999,20432,-.13436E-4,-.502E-5,0
STARLINK-5120,2022-125U,2026-06-15T04:56:22.612992,15.08829919,.0001517,53.1612,136.3073,89.9727,270.1438,0,U,53982,999,20417,-.94013E-4,-.1784E-4,0
